start=new Date('2022-11-24T00:00:00.000Z').valueOf();
sats=[{"EPOCH":"2022-11-23T16:44:23.920512","MEAN_MOTION":"15.08832850","MEAN_MOTION_DOT":"-0.00000176","SEMIMAJOR_AXIS":"6917.902","TLE_LINE2":"2 52125  53.2182  65.0632 0001792  46.9796 313.1347 15.08832850 39475","OBJECT_TYPE":"PAYLOAD","REF_FRAME":"TEME","GP_ID":"218602713","RA_OF_ASC_NODE":"65.0632","EPHEMERIS_TYPE":"0","FILE":"3668355","CLASSIFICATION_TYPE":"U","PERIOD":"95.438","MEAN_ANOMALY":"313.1347","ECCENTRICITY":"0.00017920","TIME_SYSTEM":"UTC","OBJECT_NAME":"STARLINK-3727","OBJECT_ID":"2022-029AP","REV_AT_EPOCH":"3947","CENTER_NAME":"EARTH","DECAY_DATE":null,"MEAN_MOTION_DDOT":"0.0000000000000","COUNTRY_CODE":"US","BSTAR":"0.00000702400000","INCLINATION":"53.2182","ARG_OF_PERICENTER":"46.9796","LAUNCH_DATE":"2022-03-19","NORAD_CAT_ID":"52125","RCS_SIZE":"LARGE","PERIAPSIS":"538.528","ELEMENT_SET_NO":"999","SITE":"AFETR","APOAPSIS":"541.007","TLE_LINE1":"1 52125U 22029AP  22327.69749908 -.00000176  00000-0  70240-5 0  9991","MEAN_ELEMENT_THEORY":"SGP4"},{"PERIOD":"95.438","MEAN_ANOMALY":"312.6314","ECCENTRICITY":"0.00018280","OBJECT_NAME":"STARLINK-3732","TIME_SYSTEM":"UTC","OBJECT_ID":"2022-029AQ","REV_AT_EPOCH":"3947","CENTER_NAME":"EARTH","DECAY_DATE":null,"MEAN_MOTION_DDOT":"0.0000000000000","EPOCH":"2022-11-23T18:30:22.512960","MEAN_MOTION_DOT":"0.00000160","MEAN_MOTION":"15.08835214","SEMIMAJOR_AXIS":"6917.895","TLE_LINE2":"2 52126  53.2195  64.7327 0001828  47.4832 312.6314 15.08835214 39479","OBJECT_TYPE":"PAYLOAD","REF_FRAME":"TEME","RA_OF_ASC_NODE":"64.7327","GP_ID":"218602456","EPHEMERIS_TYPE":"0","FILE":"3668355","CLASSIFICATION_TYPE":"U","ELEMENT_SET_NO":"999","PERIAPSIS":"538.495","SITE":"AFETR","MEAN_ELEMENT_THEORY":"SGP4","TLE_LINE1":"1 52126U 22029AQ  22327.77109390  .00000160  00000-0  28166-4 0  9997","APOAPSIS":"541.025","COUNTRY_CODE":"US","BSTAR":"0.00002816600000","INCLINATION":"53.2195","ARG_OF_PERICENTER":"47.4832","LAUNCH_DATE":"2022-03-19","NORAD_CAT_ID":"52126","RCS_SIZE":"LARGE"},{"SEMIMAJOR_AXIS":"6917.920","TLE_LINE2":"2 52127  53.2201  65.0827 0002125  38.8151 321.2993 15.08827006 39464","MEAN_MOTION":"15.08827006","MEAN_MOTION_DOT":"0.00000047","EPOCH":"2022-11-23T16:39:06.219936","FILE":"3668355","CLASSIFICATION_TYPE":"U","REF_FRAME":"TEME","GP_ID":"218601712","EPHEMERIS_TYPE":"0","RA_OF_ASC_NODE":"65.0827","OBJECT_TYPE":"PAYLOAD","OBJECT_ID":"2022-029AR","ECCENTRICITY":"0.00021250","MEAN_ANOMALY":"321.2993","TIME_SYSTEM":"UTC","OBJECT_NAME":"STARLINK-3715","PERIOD":"95.438","DECAY_DATE":null,"CENTER_NAME":"EARTH","MEAN_MOTION_DDOT":"0.0000000000000","REV_AT_EPOCH":"3946","LAUNCH_DATE":"2022-03-19","INCLINATION":"53.2201","ARG_OF_PERICENTER":"38.8151","BSTAR":"0.00002106600000","COUNTRY_CODE":"US","NORAD_CAT_ID":"52127","RCS_SIZE":"LARGE","ELEMENT_SET_NO":"999","PERIAPSIS":"538.315","MEAN_ELEMENT_THEORY":"SGP4","TLE_LINE1":"1 52127U 22029AR  22327.69382199  .00000047  00000-0  21066-4 0  9995","APOAPSIS":"541.255","SITE":"AFETR"},{"PERIAPSIS":"538.298","ELEMENT_SET_NO":"999","SITE":"AFETR","TLE_LINE1":"1 52129U 22029AT  22327.75269199 -.00000195  00000-0  58471-5 0  9994","APOAPSIS":"541.195","MEAN_ELEMENT_THEORY":"SGP4","COUNTRY_CODE":"US","BSTAR":"0.00000584710000","ARG_OF_PERICENTER":"35.0511","INCLINATION":"53.2180","LAUNCH_DATE":"2022-03-19","RCS_SIZE":"LARGE","NORAD_CAT_ID":"52129","PERIOD":"95.438","TIME_SYSTEM":"UTC","OBJECT_NAME":"STARLINK-3661","ECCENTRICITY":"0.00020940","MEAN_ANOMALY":"325.0619","OBJECT_ID":"2022-029AT","REV_AT_EPOCH":"3948","MEAN_MOTION_DDOT":"0.0000000000000","CENTER_NAME":"EARTH","DECAY_DATE":null,"EPOCH":"2022-11-23T18:03:52.587936","MEAN_MOTION_DOT":"-0.00000195","MEAN_MOTION":"15.08839606","TLE_LINE2":"2 52129  53.2180  64.8140 0002094  35.0511 325.0619 15.08839606 39489","SEMIMAJOR_AXIS":"6917.882","OBJECT_TYPE":"PAYLOAD","RA_OF_ASC_NODE":"64.8140","GP_ID":"218601962","EPHEMERIS_TYPE":"0","REF_FRAME":"TEME","CLASSIFICATION_TYPE":"U","FILE":"3668355"},{"PERIOD":"95.438","OBJECT_ID":"2022-029AV","ECCENTRICITY":"0.00018050","MEAN_ANOMALY":"311.6716","TIME_SYSTEM":"UTC","OBJECT_NAME":"STARLINK-3711","REV_AT_EPOCH":"3945","CENTER_NAME":"EARTH","DECAY_DATE":null,"MEAN_MOTION_DDOT":"0.0000000000000","MEAN_MOTION_DOT":"0.00000391","MEAN_MOTION":"15.08837686","EPOCH":"2022-11-23T13:12:25.151040","SEMIMAJOR_AXIS":"6917.887","TLE_LINE2":"2 52131  53.2198  65.7385 0001805  48.4431 311.6716 15.08837686 39452","OBJECT_TYPE":"PAYLOAD","FILE":"3668134","CLASSIFICATION_TYPE":"U","REF_FRAME":"TEME","EPHEMERIS_TYPE":"0","GP_ID":"218544264","RA_OF_ASC_NODE":"65.7385","PERIAPSIS":"538.504","ELEMENT_SET_NO":"999","APOAPSIS":"541.001","TLE_LINE1":"1 52131U 22029AV  22327.55029110  .00000391  00000-0  42666-4 0  9997","MEAN_ELEMENT_THEORY":"SGP4","SITE":"AFETR","BSTAR":"0.00004266600000","COUNTRY_CODE":"US","LAUNCH_DATE":"2022-03-19","INCLINATION":"53.2198","ARG_OF_PERICENTER":"48.4431","NORAD_CAT_ID":"52131","RCS_SIZE":"LARGE"},{"CLASSIFICATION_TYPE":"U","FILE":"3668355","GP_ID":"218602957","RA_OF_ASC_NODE":"64.8119","EPHEMERIS_TYPE":"0","REF_FRAME":"TEME","OBJECT_TYPE":"PAYLOAD","TLE_LINE2":"2 52132  53.2178  64.8119 0002279  34.0445 326.0693 15.08839457 39483","SEMIMAJOR_AXIS":"6917.882","MEAN_MOTION_DOT":"-0.00000206","MEAN_MOTION":"15.08839457","EPOCH":"2022-11-23T18:09:10.577088","MEAN_MOTION_DDOT":"0.0000000000000","CENTER_NAME":"EARTH","DECAY_DATE":null,"REV_AT_EPOCH":"3948","OBJECT_ID":"2022-029AW","TIME_SYSTEM":"UTC","OBJECT_NAME":"STARLINK-3718","MEAN_ANOMALY":"326.0693","ECCENTRICITY":"0.00022790","PERIOD":"95.438","RCS_SIZE":"LARGE","NORAD_CAT_ID":"52132","LAUNCH_DATE":"2022-03-19","ARG_OF_PERICENTER":"34.0445","INCLINATION":"53.2178","BSTAR":"0.00000518690000","COUNTRY_CODE":"US","TLE_LINE1":"1 52132U 22029AW  22327.75637242 -.00000206  00000-0  51869-5 0  9993","APOAPSIS":"541.324","MEAN_ELEMENT_THEORY":"SGP4","SITE":"AFETR","ELEMENT_SET_NO":"999","PERIAPSIS":"538.170"},{"ARG_OF_PERICENTER":"48.5998","INCLINATION":"53.2200","LAUNCH_DATE":"2022-03-19","COUNTRY_CODE":"US","BSTAR":"-0.00004300600000","RCS_SIZE":"LARGE","NORAD_CAT_ID":"52133","ELEMENT_SET_NO":"999","PERIAPSIS":"538.365","SITE":"AFETR","TLE_LINE1":"1 52133U 22029AX  22327.54293380 -.00000973  00000-0 -43006-4 0  9997","APOAPSIS":"541.110","MEAN_ELEMENT_THEORY":"SGP4","TLE_LINE2":"2 52133  53.2200  65.7686 0001984  48.5998 311.5165 15.08842634 39455","SEMIMAJOR_AXIS":"6917.872","EPOCH":"2022-11-23T13:01:49.480320","MEAN_MOTION_DOT":"-0.00000973","MEAN_MOTION":"15.08842634","GP_ID":"218516011","RA_OF_ASC_NODE":"65.7686","EPHEMERIS_TYPE":"0","REF_FRAME":"TEME","CLASSIFICATION_TYPE":"U","FILE":"3667920","OBJECT_TYPE":"PAYLOAD","TIME_SYSTEM":"UTC","OBJECT_NAME":"STARLINK-3707","ECCENTRICITY":"0.00019840","MEAN_ANOMALY":"311.5165","OBJECT_ID":"2022-029AX","PERIOD":"95.437","MEAN_MOTION_DDOT":"0.0000000000000","CENTER_NAME":"EARTH","DECAY_DATE":null,"REV_AT_EPOCH":"3945"},{"OBJECT_TYPE":"PAYLOAD","REF_FRAME":"TEME","RA_OF_ASC_NODE":"64.8561","GP_ID":"218601462","EPHEMERIS_TYPE":"0","FILE":"3668355","CLASSIFICATION_TYPE":"U","EPOCH":"2022-11-23T17:53:17.338848","MEAN_MOTION_DOT":"0.00000287","MEAN_MOTION":"15.08832436","SEMIMAJOR_AXIS":"6917.904","TLE_LINE2":"2 52134  53.2197  64.8561 0001966  41.6349 318.4793 15.08832436 39482","REV_AT_EPOCH":"3948","CENTER_NAME":"EARTH","DECAY_DATE":null,"MEAN_MOTION_DDOT":"0.0000000000000","PERIOD":"95.438","ECCENTRICITY":"0.00019660","MEAN_ANOMALY":"318.4793","TIME_SYSTEM":"UTC","OBJECT_NAME":"STARLINK-3721","OBJECT_ID":"2022-029AY","NORAD_CAT_ID":"52134","RCS_SIZE":"LARGE","COUNTRY_CODE":"US","BSTAR":"0.00003611800000","INCLINATION":"53.2197","ARG_OF_PERICENTER":"41.6349","LAUNCH_DATE":"2022-03-19","SITE":"AFETR","MEAN_ELEMENT_THEORY":"SGP4","TLE_LINE1":"1 52134U 22029AY  22327.74533957  .00000287  00000-0  36118-4 0  9999","APOAPSIS":"541.129","PERIAPSIS":"538.408","ELEMENT_SET_NO":"999"},{"MEAN_MOTION_DOT":"-0.00000311","MEAN_MOTION":"15.08838180","EPOCH":"2022-11-22T19:16:41.340864","SEMIMAJOR_AXIS":"6917.886","TLE_LINE2":"2 52135  53.2213  69.0942 0002646  37.3861 322.7315 15.08838180 39344","OBJECT_TYPE":"PAYLOAD","FILE":"3667517","CLASSIFICATION_TYPE":"U","REF_FRAME":"TEME","RA_OF_ASC_NODE":"69.0942","GP_ID":"218505631","EPHEMERIS_TYPE":"0","PERIOD":"95.438","OBJECT_ID":"2022-029AZ","ECCENTRICITY":"0.00026460","MEAN_ANOMALY":"322.7315","OBJECT_NAME":"STARLINK-3729","TIME_SYSTEM":"UTC","REV_AT_EPOCH":"3934","DECAY_DATE":null,"CENTER_NAME":"EARTH","MEAN_MOTION_DDOT":"0.0000000000000","BSTAR":"-0.00000143650000","COUNTRY_CODE":"US","LAUNCH_DATE":"2022-03-19","INCLINATION":"53.2213","ARG_OF_PERICENTER":"37.3861","NORAD_CAT_ID":"52135","RCS_SIZE":"LARGE","ELEMENT_SET_NO":"999","PERIAPSIS":"537.920","TLE_LINE1":"1 52135U 22029AZ  22326.80325626 -.00000311  00000-0 -14365-5 0  9999","APOAPSIS":"541.581","MEAN_ELEMENT_THEORY":"SGP4","SITE":"AFETR"},{"MEAN_MOTION_DOT":"0.00000000","MEAN_MOTION":"15.08831745","EPOCH":"2022-11-23T16:07:18.744672","TLE_LINE2":"2 52136  53.2200  65.1910 0001820  43.2847 316.8288 15.08831745 39473","SEMIMAJOR_AXIS":"6917.906","OBJECT_TYPE":"PAYLOAD","CLASSIFICATION_TYPE":"U","FILE":"3668355","GP_ID":"218602457","EPHEMERIS_TYPE":"0","RA_OF_ASC_NODE":"65.1910","REF_FRAME":"TEME","PERIOD":"95.438","OBJECT_ID":"2022-029BA","TIME_SYSTEM":"UTC","OBJECT_NAME":"STARLINK-3720","ECCENTRICITY":"0.00018200","MEAN_ANOMALY":"316.8288","REV_AT_EPOCH":"3947","MEAN_MOTION_DDOT":"0.0000000000000","DECAY_DATE":null,"CENTER_NAME":"EARTH","BSTAR":"0.00001810000000","COUNTRY_CODE":"US","LAUNCH_DATE":"2022-03-19","ARG_OF_PERICENTER":"43.2847","INCLINATION":"53.2200","RCS_SIZE":"LARGE","NORAD_CAT_ID":"52136","ELEMENT_SET_NO":"999","PERIAPSIS":"538.512","APOAPSIS":"541.030","TLE_LINE1":"1 52136U 22029BA  22327.67174473  .00000000  00000-0  18100-4 0  9991","MEAN_ELEMENT_THEORY":"SGP4","SITE":"AFETR"}];
